OBJECT B                
1 51825U 22019B   25025.77397843  .00026538  00000+0  83522-3 0  9993
2 51825  97.4040 101.6843 0011911 167.5123 192.6417 15.32848904161190
